ONEWEB-0233             
1 48795U 21045AE  25015.44964658 -.00000104  00000+0 -31063-3 0  9996
2 48795  87.9077   2.3292 0001739  96.6877 263.4451 13.15548189177335
ONEWEB-0190             
1 48796U 21045AF  25014.97982732 -.00000085  00000+0 -25902-3 0  9990
2 48796  87.9080   2.3846 0001361 117.4024 242.7245 13.15546829177354
ONEWEB-0236             
1 48797U 21045AG  25014.99725699 -.00000095  00000+0 -28591-3 0  9998
2 48797  87.9082   2.3827 0001802  91.4344 268.6992 13.15546639177245
ONEWEB-0248             
1 48798U 21045AH  25014.93388261  .00000078  00000+0  17369-3 0  9993
2 48798  87.9072   2.3675 0001920 110.0482 250.0855 13.15547595176275
ONEWEB-0225             
1 48799U 21045AJ  25014.95606896  .00000152  00000+0  36891-3 0  9997
2 48799  87.9080   2.3854 0001611  98.8242 261.3071 13.15549918176285
ONEWEB-0215             
1 48800U 21045AK  25015.45835176  .00000016  00000+0  74259-5 0  9992
2 48800  87.9073   2.2473 0001744 113.0537 247.0778 13.15547653177347
ONEWEB-0216             
1 48801U 21045AL  25014.93546357  .00000092  00000+0  20980-3 0  9999
2 48801  87.9072   2.3949 0001563  84.1660 275.9649 13.15547117176161
ONEWEB-0239             
1 48802U 21045AM  25015.47261645  .00000152  00000+0  36943-3 0  9997
2 48802  87.9083   2.2826 0001949 114.1862 245.9473 13.15546602177412
